start=new Date('2021-10-25T00:00:00.000Z').valueOf();
sats=[{"OBJECT_TYPE":"PAYLOAD","MEAN_MOTION_DDOT":"0.0000000000000","SITE":"AFETR","FILE":"3182259","REF_FRAME":"TEME","DECAY_DATE":null,"SEMIMAJOR_AXIS":"6925.326","RA_OF_ASC_NODE":"252.1555","ELEMENT_SET_NO":"999","ECCENTRICITY":"0.00016850","INCLINATION":"53.0557","OBJECT_NAME":"STARLINK-2352","TLE_LINE1":"1 47892U 21021AJ  21297.39255383  .00001986  00000-0  15219-3 0  9990","RCS_SIZE":"LARGE","PERIOD":"95.592","NORAD_CAT_ID":"47892","PERIAPSIS":"546.024","REV_AT_EPOCH":"3482","EPOCH":"2021-10-24T09:25:16.650912","MEAN_MOTION":"15.06407346","TIME_SYSTEM":"UTC","MEAN_MOTION_DOT":"0.00001986","ARG_OF_PERICENTER":"71.8411","GP_ID":"188072592","CLASSIFICATION_TYPE":"U","COUNTRY_CODE":"US","MEAN_ANOMALY":"288.2761","TLE_LINE2":"2 47892  53.0557 252.1555 0001685  71.8411 288.2761 15.06407346 34821","MEAN_ELEMENT_THEORY":"SGP4","OBJECT_ID":"2021-021AJ","EPHEMERIS_TYPE":"0","CENTER_NAME":"EARTH","APOAPSIS":"548.358","BSTAR":"0.00015219000000","LAUNCH_DATE":"2021-03-14"},{"OBJECT_TYPE":"PAYLOAD","DECAY_DATE":null,"REF_FRAME":"TEME","FILE":"3182768","SITE":"AFETR","MEAN_MOTION_DDOT":"0.0000000000000","ECCENTRICITY":"0.00017260","SEMIMAJOR_AXIS":"6925.343","ELEMENT_SET_NO":"999","RA_OF_ASC_NODE":"240.0542","OBJECT_NAME":"STARLINK-2354","INCLINATION":"53.0564","TLE_LINE1":"1 47894U 21021AL  21297.86158486 -.00000131  00000-0  10077-4 0  9990","RCS_SIZE":"LARGE","PERIAPSIS":"546.013","NORAD_CAT_ID":"47894","PERIOD":"95.592","REV_AT_EPOCH":"3546","EPOCH":"2021-10-24T20:40:40.931904","MEAN_MOTION":"15.06401779","GP_ID":"188106301","COUNTRY_CODE":"US","CLASSIFICATION_TYPE":"U","MEAN_ANOMALY":"287.5139","MEAN_MOTION_DOT":"-0.00000131","ARG_OF_PERICENTER":"72.6038","TIME_SYSTEM":"UTC","CENTER_NAME":"EARTH","EPHEMERIS_TYPE":"0","MEAN_ELEMENT_THEORY":"SGP4","OBJECT_ID":"2021-021AL","TLE_LINE2":"2 47894  53.0564 240.0542 0001726  72.6038 287.5139 15.06401779 35469","BSTAR":"0.00001007700000","APOAPSIS":"548.403","LAUNCH_DATE":"2021-03-14"},{"REV_AT_EPOCH":"3549","MEAN_MOTION":"15.06400612","EPOCH":"2021-10-24T20:56:36.530592","EPHEMERIS_TYPE":"0","CENTER_NAME":"EARTH","TLE_LINE2":"2 47895  53.0563 240.0026 0001563  79.4450 280.6715 15.06400612 35490","MEAN_ELEMENT_THEORY":"SGP4","OBJECT_ID":"2021-021AM","ARG_OF_PERICENTER":"79.4450","MEAN_MOTION_DOT":"-0.00000569","GP_ID":"188106552","CLASSIFICATION_TYPE":"U","COUNTRY_CODE":"US","MEAN_ANOMALY":"280.6715","TIME_SYSTEM":"UTC","LAUNCH_DATE":"2021-03-14","BSTAR":"-0.00001930400000","APOAPSIS":"548.294","OBJECT_TYPE":"PAYLOAD","ECCENTRICITY":"0.00015630","SEMIMAJOR_AXIS":"6925.347","ELEMENT_SET_NO":"999","RA_OF_ASC_NODE":"240.0026","FILE":"3182768","DECAY_DATE":null,"REF_FRAME":"TEME","MEAN_MOTION_DDOT":"0.0000000000000","SITE":"AFETR","TLE_LINE1":"1 47895U 21021AM  21297.87264503 -.00000569  00000-0 -19304-4 0  9998","OBJECT_NAME":"STARLINK-2355","INCLINATION":"53.0563","PERIAPSIS":"546.129","PERIOD":"95.592","NORAD_CAT_ID":"47895","RCS_SIZE":"LARGE"},{"OBJECT_TYPE":"PAYLOAD","FILE":"3182768","REF_FRAME":"TEME","DECAY_DATE":null,"MEAN_MOTION_DDOT":"0.0000000000000","SITE":"AFETR","ECCENTRICITY":"0.00016180","RA_OF_ASC_NODE":"256.1781","SEMIMAJOR_AXIS":"6925.351","ELEMENT_SET_NO":"999","OBJECT_NAME":"STARLINK-2356","INCLINATION":"53.0537","TLE_LINE1":"1 47896U 21021AN  21297.60035222  .00000307  00000-0  39481-4 0  9990","RCS_SIZE":"LARGE","PERIAPSIS":"546.096","PERIOD":"95.592","NORAD_CAT_ID":"47896","REV_AT_EPOCH":"3521","EPOCH":"2021-10-24T14:24:30.431808","MEAN_MOTION":"15.06399135","ARG_OF_PERICENTER":"68.0318","MEAN_MOTION_DOT":"0.00000307","GP_ID":"188105300","COUNTRY_CODE":"US","CLASSIFICATION_TYPE":"U","MEAN_ANOMALY":"292.0843","TIME_SYSTEM":"UTC","EPHEMERIS_TYPE":"0","CENTER_NAME":"EARTH","TLE_LINE2":"2 47896  53.0537 256.1781 0001618  68.0318 292.0843 15.06399135 35212","OBJECT_ID":"2021-021AN","MEAN_ELEMENT_THEORY":"SGP4","BSTAR":"0.00003948100000","APOAPSIS":"548.337","LAUNCH_DATE":"2021-03-14"},{"BSTAR":"-0.00003368400000","APOAPSIS":"548.331","LAUNCH_DATE":"2021-03-14","GP_ID":"188105550","COUNTRY_CODE":"US","MEAN_ANOMALY":"289.7704","CLASSIFICATION_TYPE":"U","MEAN_MOTION_DOT":"-0.00000783","ARG_OF_PERICENTER":"70.3455","TIME_SYSTEM":"UTC","CENTER_NAME":"EARTH","EPHEMERIS_TYPE":"0","OBJECT_ID":"2021-021AP","MEAN_ELEMENT_THEORY":"SGP4","TLE_LINE2":"2 47897  53.0560 240.0372 0001577  70.3455 289.7704 15.06391606 35527","EPOCH":"2021-10-24T20:55:15.922848","MEAN_MOTION":"15.06391606","REV_AT_EPOCH":"3552","RCS_SIZE":"MEDIUM","PERIAPSIS":"546.147","NORAD_CAT_ID":"47897","PERIOD":"95.593","OBJECT_NAME":"STARLINK-2357","INCLINATION":"53.0560","TLE_LINE1":"1 47897U 21021AP  21297.87171207 -.00000783  00000-0 -33684-4 0  9993","REF_FRAME":"TEME","DECAY_DATE":null,"FILE":"3182768","SITE":"AFETR","MEAN_MOTION_DDOT":"0.0000000000000","ECCENTRICITY":"0.00015770","SEMIMAJOR_AXIS":"6925.374","ELEMENT_SET_NO":"999","RA_OF_ASC_NODE":"240.0372","OBJECT_TYPE":"PAYLOAD"},{"REV_AT_EPOCH":"3546","EPOCH":"2021-10-24T20:45:59.993280","MEAN_MOTION":"15.06401098","COUNTRY_CODE":"US","GP_ID":"188105801","CLASSIFICATION_TYPE":"U","MEAN_ANOMALY":"289.5805","ARG_OF_PERICENTER":"70.5350","MEAN_MOTION_DOT":"0.00000078","TIME_SYSTEM":"UTC","CENTER_NAME":"EARTH","EPHEMERIS_TYPE":"0","OBJECT_ID":"2021-021AQ","MEAN_ELEMENT_THEORY":"SGP4","TLE_LINE2":"2 47898  53.0569 240.0394 0001543  70.5350 289.5805 15.06401098 35460","BSTAR":"0.00002415700000","APOAPSIS":"548.279","LAUNCH_DATE":"2021-03-14","OBJECT_TYPE":"PAYLOAD","REF_FRAME":"TEME","DECAY_DATE":null,"FILE":"3182768","SITE":"AFETR","MEAN_MOTION_DDOT":"0.0000000000000","ECCENTRICITY":"0.00015430","SEMIMAJOR_AXIS":"6925.345","RA_OF_ASC_NODE":"240.0394","ELEMENT_SET_NO":"999","OBJECT_NAME":"STARLINK-2358","INCLINATION":"53.0569","TLE_LINE1":"1 47898U 21021AQ  21297.86527770  .00000078  00000-0  24157-4 0  9993","RCS_SIZE":"LARGE","PERIAPSIS":"546.142","NORAD_CAT_ID":"47898","PERIOD":"95.592"},{"LAUNCH_DATE":"2021-03-14","APOAPSIS":"548.277","BSTAR":"0.00003897300000","OBJECT_ID":"2021-021AR","MEAN_ELEMENT_THEORY":"SGP4","TLE_LINE2":"2 47899  53.0559 230.3475 0001526  73.7741 286.3416 15.06397741 35655","CENTER_NAME":"EARTH","EPHEMERIS_TYPE":"0","TIME_SYSTEM":"UTC","CLASSIFICATION_TYPE":"U","GP_ID":"188106052","COUNTRY_CODE":"US","MEAN_ANOMALY":"286.3416","MEAN_MOTION_DOT":"0.00000299","ARG_OF_PERICENTER":"73.7741","MEAN_MOTION":"15.06397741","EPOCH":"2021-10-24T19:06:29.459520","REV_AT_EPOCH":"3565","NORAD_CAT_ID":"47899","PERIOD":"95.592","PERIAPSIS":"546.164","RCS_SIZE":"LARGE","TLE_LINE1":"1 47899U 21021AR  21297.79617430  .00000299  00000-0  38973-4 0  9995","INCLINATION":"53.0559","OBJECT_NAME":"STARLINK-2359","RA_OF_ASC_NODE":"230.3475","SEMIMAJOR_AXIS":"6925.355","ELEMENT_SET_NO":"999","ECCENTRICITY":"0.00015260","SITE":"AFETR","MEAN_MOTION_DDOT":"0.0000000000000","REF_FRAME":"TEME","DECAY_DATE":null,"FILE":"3182768","OBJECT_TYPE":"PAYLOAD"},{"OBJECT_TYPE":"PAYLOAD","SITE":"AFETR","MEAN_MOTION_DDOT":"0.0000000000000","REF_FRAME":"TEME","DECAY_DATE":null,"FILE":"3182768","RA_OF_ASC_NODE":"241.4342","SEMIMAJOR_AXIS":"6925.380","ELEMENT_SET_NO":"999","ECCENTRICITY":"0.00015430","INCLINATION":"53.0566","OBJECT_NAME":"STARLINK-2360","TLE_LINE1":"1 47900U 21021AS  21297.55472636  .00000216  00000-0  33382-4 0  9997","RCS_SIZE":"LARGE","NORAD_CAT_ID":"47900","PERIOD":"95.593","PERIAPSIS":"546.177","REV_AT_EPOCH":"3547","EPOCH":"2021-10-24T13:18:48.357504","MEAN_MOTION":"15.06389648","TIME_SYSTEM":"UTC","COUNTRY_CODE":"US","GP_ID":"188104800","CLASSIFICATION_TYPE":"U","MEAN_ANOMALY":"282.1777","ARG_OF_PERICENTER":"77.9385","MEAN_MOTION_DOT":"0.00000216","OBJECT_ID":"2021-021AS","MEAN_ELEMENT_THEORY":"SGP4","TLE_LINE2":"2 47900  53.0566 241.4342 0001543  77.9385 282.1777 15.06389648 35472","CENTER_NAME":"EARTH","EPHEMERIS_TYPE":"0","APOAPSIS":"548.314","BSTAR":"0.00003338200000","LAUNCH_DATE":"2021-03-14"},{"OBJECT_TYPE":"PAYLOAD","RA_OF_ASC_NODE":"230.1376","SEMIMAJOR_AXIS":"6925.372","ELEMENT_SET_NO":"999","ECCENTRICITY":"0.00015900","SITE":"AFETR","MEAN_MOTION_DDOT":"0.0000000000000","REF_FRAME":"TEME","DECAY_DATE":null,"FILE":"3182768","TLE_LINE1":"1 47901U 21021AT  21297.84314361 -.00000441  00000-0 -10710-4 0  9992","INCLINATION":"53.0528","OBJECT_NAME":"STARLINK-2361","NORAD_CAT_ID":"47901","PERIOD":"95.593","PERIAPSIS":"546.136","RCS_SIZE":"LARGE","REV_AT_EPOCH":"3564","MEAN_MOTION":"15.06392378","EPOCH":"2021-10-24T20:14:07.607904","OBJECT_ID":"2021-021AT","MEAN_ELEMENT_THEORY":"SGP4","TLE_LINE2":"2 47901  53.0528 230.1376 0001590  72.2880 287.8282 15.06392378 35649","CENTER_NAME":"EARTH","EPHEMERIS_TYPE":"0","TIME_SYSTEM":"UTC","CLASSIFICATION_TYPE":"U","GP_ID":"188105050","COUNTRY_CODE":"US","MEAN_ANOMALY":"287.8282","ARG_OF_PERICENTER":"72.2880","MEAN_MOTION_DOT":"-0.00000441","LAUNCH_DATE":"2021-03-14","APOAPSIS":"548.338","BSTAR":"-0.00001071000000"},{"OBJECT_TYPE":"PAYLOAD","REF_FRAME":"TEME","DECAY_DATE":null,"FILE":"3182768","SITE":"AFETR","MEAN_MOTION_DDOT":"0.0000000000000","ECCENTRICITY":"0.00017820","SEMIMAJOR_AXIS":"6925.359","RA_OF_ASC_NODE":"250.1631","ELEMENT_SET_NO":"999","OBJECT_NAME":"STARLINK-2362","INCLINATION":"53.0546","TLE_LINE1":"1 47902U 21021AU  21297.83487025 -.00000233  00000-0  32506-5 0  9996","RCS_SIZE":"LARGE","PERIAPSIS":"545.990","NORAD_CAT_ID":"47902","PERIOD":"95.592","REV_AT_EPOCH":"3547","EPOCH":"2021-10-24T20:02:12.789600","MEAN_MOTION":"15.06396686","COUNTRY_CODE":"US","GP_ID":"188106302","CLASSIFICATION_TYPE":"U","MEAN_ANOMALY":"293.2029","MEAN_MOTION_DOT":"-0.00000233","ARG_OF_PERICENTER":"66.9148","TIME_SYSTEM":"UTC","CENTER_NAME":"EARTH","EPHEMERIS_TYPE":"0","OBJECT_ID":"2021-021AU","MEAN_ELEMENT_THEORY":"SGP4","TLE_LINE2":"2 47902  53.0546 250.1631 0001782  66.9148 293.2029 15.06396686 35473","BSTAR":"0.00000325060000","APOAPSIS":"548.458","LAUNCH_DATE":"2021-03-14"}];
